{
  "type": "FeatureCollection",
  "features": [
    {
      "type": "Feature",
      "properties": {
        "norad_id": 39227,
        "name": "ARIRANG-5 (KOMPSAT-5)",
        "group": "resource",
        "lat": -64.41318847756901,
        "lon": -12.809935674145033,
        "alt_km": 562.0980873377848,
        "timestamp": "2025-12-25T07:00:33.699592+00:00",
        "meta_object_name": "ARIRANG-5 (KOMPSAT-5)",
        "meta_object_id": "2013-042A",
        "meta_epoch": "2025-12-24T23:32:12.060096",
        "meta_mean_motion": 15.04484269,
        "meta_eccentricity": 0.0003053,
        "meta_inclination": 97.6163,
        "meta_ra_of_asc_node": 183.1105,
        "meta_arg_of_pericenter": 33.765,
        "meta_mean_anomaly": 326.377,
        "meta_ephemeris_type": 0,
        "meta_classification_type": "U",
        "meta_norad_cat_id": 39227,
        "meta_element_set_no": 999,
        "meta_rev_at_epoch": 67766,
        "meta_bstar": 0.00018467783,
        "meta_mean_motion_dot": 2.524e-05,
        "meta_mean_motion_ddot": 0,
        "tle_line1": "1 39227U 13042A   25358.98069514  .00002524  00000+0  18468-3 0  9990",
        "tle_line2": "2 39227  97.6163 183.1105 0003053  33.7650 326.3770 15.04484269677664"
      },
      "geometry": {
        "type": "Point",
        "coordinates": [
          -12.809935674145033,
          -64.41318847756901
        ]
      }
    },
    {
      "type": "Feature",
      "properties": {
        "norad_id": 39418,
        "name": "SKYSAT-A",
        "group": "resource",
        "lat": -39.81896768087411,
        "lon": -137.1095133530353,
        "alt_km": 524.5061940496553,
        "timestamp": "2025-12-25T07:00:33.699602+00:00",
        "meta_object_name": "SKYSAT-A",
        "meta_object_id": "2013-066C",
        "meta_epoch": "2025-12-24T15:44:27.881664",
        "meta_mean_motion": 15.11686962,
        "meta_eccentricity": 0.00216023,
        "meta_inclination": 97.4086,
        "meta_ra_of_asc_node": 48.5017,
        "meta_arg_of_pericenter": 193.6235,
        "meta_mean_anomaly": 166.4415,
        "meta_ephemeris_type": 0,
        "meta_classification_type": "U",
        "meta_norad_cat_id": 39418,
        "meta_element_set_no": 999,
        "meta_rev_at_epoch": 66210,
        "meta_bstar": 0.00019275017,
        "meta_mean_motion_dot": 3.234e-05,
        "meta_mean_motion_ddot": 0,
        "tle_line1": "1 39418U 13066C   25358.65587826  .00003234  00000+0  19275-3 0  9999",
        "tle_line2": "2 39418  97.4086  48.5017 0021602 193.6235 166.4415 15.11686962662103"
      },
      "geometry": {
        "type": "Point",
        "coordinates": [
          -137.1095133530353,
          -39.81896768087411
        ]
      }
    },
    {
      "type": "Feature",
      "properties": {
        "norad_id": 39419,
        "name": "DUBAISAT-2",
        "group": "resource",
        "lat": -35.91772815265452,
        "lon": 163.87668935135193,
        "alt_km": 543.4080843586034,
        "timestamp": "2025-12-25T07:00:33.699612+00:00",
        "meta_object_name": "DUBAISAT-2",
        "meta_object_id": "2013-066D",
        "meta_epoch": "2025-12-24T23:41:05.839296",
        "meta_mean_motion": 15.08470308,
        "meta_eccentricity": 0.00099137,
        "meta_inclination": 97.4463,
        "meta_ra_of_asc_node": 349.017,
        "meta_arg_of_pericenter": 273.3468,
        "meta_mean_anomaly": 86.6626,
        "meta_ephemeris_type": 0,
        "meta_classification_type": "U",
        "meta_norad_cat_id": 39419,
        "meta_element_set_no": 999,
        "meta_rev_at_epoch": 66011,
        "meta_bstar": 0.00027267322,
        "meta_mean_motion_dot": 4.192e-05,
        "meta_mean_motion_ddot": 0,
        "tle_line1": "1 39419U 13066D   25358.98687314  .00004192  00000+0  27267-3 0  9993",
        "tle_line2": "2 39419  97.4463 349.0170 0009913 273.3468  86.6626 15.08470308660114"
      },
      "geometry": {
        "type": "Point",
        "coordinates": [
          163.87668935135193,
          -35.91772815265452
        ]
      }
    },
    {
      "type": "Feature",
      "properties": {
        "norad_id": 39574,
        "name": "GPM-CORE",
        "group": "resource",
        "lat": -38.227145102596424,
        "lon": 12.240092932167075,
        "alt_km": 432.3395848734817,
        "timestamp": "2025-12-25T07:00:33.699622+00:00",
        "meta_object_name": "GPM-CORE",
        "meta_object_id": "2014-009C",
        "meta_epoch": "2025-12-24T20:43:24.779136",
        "meta_mean_motion": 15.44649867,
        "meta_eccentricity": 0.00091131,
        "meta_inclination": 64.9726,
        "meta_ra_of_asc_node": 172.0809,
        "meta_arg_of_pericenter": 250.5977,
        "meta_mean_anomaly": 109.4179,
        "meta_ephemeris_type": 0,
        "meta_classification_type": "U",
        "meta_norad_cat_id": 39574,
        "meta_element_set_no": 999,
        "meta_rev_at_epoch": 67088,
        "meta_bstar": 0.00019570194,
        "meta_mean_motion_dot": 8.937e-05,
        "meta_mean_motion_ddot": 0,
        "tle_line1": "1 39574U 14009C   25358.86348124  .00008937  00000+0  19570-3 0  9992",
        "tle_line2": "2 39574  64.9726 172.0809 0009113 250.5977 109.4179 15.44649867670884"
      },
      "geometry": {
        "type": "Point",
        "coordinates": [
          12.240092932167075,
          -38.227145102596424
        ]
      }
    },
    {
      "type": "Feature",
      "properties": {
        "norad_id": 39634,
        "name": "SENTINEL-1A",
        "group": "resource",
        "lat": 35.75593775662396,
        "lon": -169.7073837734787,
        "alt_km": 692.8482282432651,
        "timestamp": "2025-12-25T07:00:33.699632+00:00",
        "meta_object_name": "SENTINEL-1A",
        "meta_object_id": "2014-016A",
        "meta_epoch": "2025-12-24T23:46:12.472896",
        "meta_mean_motion": 14.59199333,
        "meta_eccentricity": 0.00012086,
        "meta_inclination": 98.1801,
        "meta_ra_of_asc_node": 4.0504,
        "meta_arg_of_pericenter": 87.596,
        "meta_mean_anomaly": 272.5378,
        "meta_ephemeris_type": 0,
        "meta_classification_type": "U",
        "meta_norad_cat_id": 39634,
        "meta_element_set_no": 999,
        "meta_rev_at_epoch": 62461,
        "meta_bstar": -3.8834701e-05,
        "meta_mean_motion_dot": -2.29e-06,
        "meta_mean_motion_ddot": 0,
        "tle_line1": "1 39634U 14016A   25358.99042214 -.00000229  00000+0 -38835-4 0  9996",
        "tle_line2": "2 39634  98.1801   4.0504 0001208  87.5960 272.5378 14.59199333624613"
      },
      "geometry": {
        "type": "Point",
        "coordinates": [
          -169.7073837734787,
          35.75593775662396
        ]
      }
    },
    {
      "type": "Feature",
      "properties": {
        "norad_id": 39731,
        "name": "KAZEOSAT 1",
        "group": "resource",
        "lat": 63.84843929009844,
        "lon": 53.5302603465116,
        "alt_km": 744.6768724816438,
        "timestamp": "2025-12-25T07:00:33.699642+00:00",
        "meta_object_name": "KAZEOSAT 1",
        "meta_object_id": "2014-024A",
        "meta_epoch": "2025-12-24T22:22:56.132832",
        "meta_mean_motion": 14.42068845,
        "meta_eccentricity": 0.00012238,
        "meta_inclination": 98.3418,
        "meta_ra_of_asc_node": 70.5658,
        "meta_arg_of_pericenter": 96.9437,
        "meta_mean_anomaly": 263.1892,
        "meta_ephemeris_type": 0,
        "meta_classification_type": "U",
        "meta_norad_cat_id": 39731,
        "meta_element_set_no": 999,
        "meta_rev_at_epoch": 61344,
        "meta_bstar": 5.3586907e-05,
        "meta_mean_motion_dot": 1.33e-06,
        "meta_mean_motion_ddot": 0,
        "tle_line1": "1 39731U 14024A   25358.93259413  .00000133  00000+0  53587-4 0  9991",
        "tle_line2": "2 39731  98.3418  70.5658 0001223  96.9437 263.1892 14.42068845613446"
      },
      "geometry": {
        "type": "Point",
        "coordinates": [
          53.5302603465116,
          63.84843929009844
        ]
      }
    },
    {
      "type": "Feature",
      "properties": {
        "norad_id": 39766,
        "name": "ALOS-2",
        "group": "resource",
        "lat": -16.67332348842894,
        "lon": -88.4309865981675,
        "alt_km": 636.0208972607597,
        "timestamp": "2025-12-25T07:00:33.699652+00:00",
        "meta_object_name": "ALOS-2",
        "meta_object_id": "2014-029A",
        "meta_epoch": "2025-12-24T23:37:49.057248",
        "meta_mean_motion": 14.79466578,
        "meta_eccentricity": 0.0001364,
        "meta_inclination": 97.9226,
        "meta_ra_of_asc_node": 93.6564,
        "meta_arg_of_pericenter": 101.0923,
        "meta_mean_anomaly": 259.0442,
        "meta_ephemeris_type": 0,
        "meta_classification_type": "U",
        "meta_norad_cat_id": 39766,
        "meta_element_set_no": 999,
        "meta_rev_at_epoch": 62582,
        "meta_bstar": 0.00043861,
        "meta_mean_motion_dot": 3.225e-05,
        "meta_mean_motion_ddot": 0,
        "tle_line1": "1 39766U 14029A   25358.98459557  .00003225  00000+0  43861-3 0  9998",
        "tle_line2": "2 39766  97.9226  93.6564 0001364 101.0923 259.0442 14.79466578625827"
      },
      "geometry": {
        "type": "Point",
        "coordinates": [
          -88.4309865981675,
          -16.67332348842894
        ]
      }
    }
  ]
}